[{"OBJECT_NAME":"STARLINK-35001","OBJECT_ID":"2025-184H","EPOCH":"2026-03-09T16:49:00.914592","MEAN_MOTION":15.05647396,"ECCENTRICITY":7.678e-5,"INCLINATION":97.6036,"RA_OF_ASC_NODE":122.6897,"ARG_OF_PERICENTER":108.4244,"MEAN_ANOMALY":251.7066,"EPHEMERIS_TYPE":0,"CLASSIFICATION_TYPE":"U","NORAD_CAT_ID":65280,"ELEMENT_SET_NO":999,"REV_AT_EPOCH":3130,"BSTAR":0.00010110195,"MEAN_MOTION_DOT":1.398e-5,"MEAN_MOTION_DDOT":0},{"OBJECT_NAME":"PEGASUS DEB","OBJECT_ID":"1994-029JY","EPOCH":"2026-03-09T23:11:54.295296","MEAN_MOTION":14.90653362,"ECCENTRICITY":0.0070631,"INCLINATION":82.0876,"RA_OF_ASC_NODE":46.3317,"ARG_OF_PERICENTER":279.2549,"MEAN_ANOMALY":134.3773,"EPHEMERIS_TYPE":0,"CLASSIFICATION_TYPE":"U","NORAD_CAT_ID":24197,"ELEMENT_SET_NO":999,"REV_AT_EPOCH":68196,"BSTAR":0.0004359638,"MEAN_MOTION_DOT":4.503e-5,"MEAN_MOTION_DDOT":0}]
